NORAD_CAT_ID,OBJECT_NAME,OBJECT_TYPE,EPOCH,MEAN_MOTION,ECCENTRICITY,INCLINATION,RA_OF_ASC_NODE,ARG_OF_PERICENTER,MEAN_ANOMALY,BSTAR,MEAN_MOTION_DOT,MEAN_MOTION_DDOT,TLE_LINE0,TLE_LINE1,TLE_LINE2,SEMIMAJOR_AXIS,PERIOD,APOGEE,PERIGEE,DECAYED
55766.0,STARLINK-5599,PAYLOAD,2024-05-14 07:17:02,14.98339417,0.0003675,69.9987,99.6443,280.7247,79.3498,0.00011349,1.262e-05,0.0,0 STARLINK-5599,1 55766U 23028AB  24135.30349578  .00001262  00000-0  11349-3 0  9990,2 55766  69.9987  99.6443 0003675 280.7247  79.3498 14.98339417 67018,6950.164,96.106,574.583,569.475,0.0
55766.0,STARLINK-5599,PAYLOAD,2024-05-14 15:17:43,14.9831119,0.0002983,69.9991,98.8026,272.2591,87.8227,0.00073702,8.708e-05,0.0,0 STARLINK-5599,1 55766U 23028AB  24135.63730492  .00008708  00000-0  73702-3 0  9998,2 55766  69.9991  98.8026 0002983 272.2591  87.8227 14.98311190 67056,6950.251,96.108,574.189,570.043,0.0
55766.0,STARLINK-5599,PAYLOAD,2024-05-14 21:42:14,14.98328923,0.0003152,69.9987,98.1298,273.6795,86.4003,0.00062673,7.393e-05,0.0,0 STARLINK-5599,1 55766U 23028AB  24135.90433747  .00007393  00000-0  62673-3 0  9995,2 55766  69.9987  98.1298 0003152 273.6795  86.4003 14.98328923 67100,6950.196,96.107,574.252,569.871,0.0
55766.0,STARLINK-5599,PAYLOAD,2024-05-15 04:06:46,14.98341142,0.0003192,69.9989,97.4563,273.079,87.0003,0.00067001,7.913e-05,0.0,0 STARLINK-5599,1 55766U 23028AB  24136.17137078  .00007913  00000-0  67001-3 0  9991,2 55766  69.9989  97.4563 0003192 273.0790  87.0003 14.98341142 67130,6950.158,96.106,574.242,569.805,0.0
55766.0,STARLINK-5599,PAYLOAD,2024-05-15 07:19:02,14.98345726,0.0003086,69.999,97.1196,272.6694,87.4112,0.00073522,8.694e-05,0.0,0 STARLINK-5599,1 55766U 23028AB  24136.30488684  .00008694  00000-0  73522-3 0  9990,2 55766  69.9990  97.1196 0003086 272.6694  87.4112 14.98345726 67161,6950.144,96.106,574.154,569.864,0.0
55766.0,STARLINK-5599,PAYLOAD,2024-05-15 21:44:15,14.98345779,0.0003087,69.9991,95.6046,272.7509,87.3297,8.812e-06,1.2e-07,0.0,0 STARLINK-5599,1 55766U 23028AB  24136.90573379  .00000012  00000-0  88120-5 0  9990,2 55766  69.9991  95.6046 0003087 272.7509  87.3297 14.98345779 67257,6950.144,96.106,574.155,569.864,0.0
55766.0,STARLINK-5599,PAYLOAD,2024-05-16 04:08:47,14.98346792,0.0003095,69.9989,94.9314,271.4598,88.6206,3.5734e-05,3.34e-06,0.0,0 STARLINK-5599,1 55766U 23028AB  24137.17277077  .00000334  00000-0  35734-4 0  9995,2 55766  69.9989  94.9314 0003095 271.4598  88.6206 14.98346792 67280,6950.141,96.106,574.157,569.855,0.0
55766.0,STARLINK-5599,PAYLOAD,2024-05-16 07:21:03,14.98351907,0.0003013,69.9992,94.5942,272.3336,87.7478,0.00012179,1.361e-05,0.0,0 STARLINK-5599,1 55766U 23028AB  24137.30628603  .00001361  00000-0  12179-3 0  9993,2 55766  69.9992  94.5942 0003013 272.3336  87.7478 14.98351907 67316,6950.125,96.106,574.084,569.896,0.0
55766.0,STARLINK-5599,PAYLOAD,2024-05-17 04:10:47,14.98344103,0.000281,70.0007,92.4078,264.6227,95.4612,-0.00019519,-2.422e-05,0.0,0 STARLINK-5599,1 55766U 23028AB  24138.17415724 -.00002422  00000-0 -19519-3 0  9993,2 55766  70.0007  92.4078 0002810 264.6227  95.4612 14.98344103 67439,6950.149,96.106,573.967,570.061,0.0
55766.0,STARLINK-5599,PAYLOAD,2024-05-17 13:47:35,14.98368263,0.0002554,70.0036,91.3958,275.4855,84.6012,-0.00079838,-9.615e-05,0.0,0 STARLINK-5599,1 55766U 23028AB  24138.57471089 -.00009615  00000-0 -79838-3 0  9994,2 55766  70.0036  91.3958 0002554 275.4855  84.6012 14.98368263 67503,6950.075,96.105,573.715,570.165,0.0
55766.0,STARLINK-5599,PAYLOAD,2024-05-17 21:48:17,14.9832456,0.0002467,70.0001,90.5574,258.6706,101.4176,-3.676e-05,-5.31e-06,0.0,0 STARLINK-5599,1 55766U 23028AB  24138.90853132 -.00000531  00000-0 -36760-4 0  9990,2 55766  70.0001  90.5574 0002467 258.6706 101.4176 14.98324560 67557,6950.21,96.107,573.789,570.36,0.0
55766.0,STARLINK-5599,PAYLOAD,2024-05-18 04:12:49,14.98324226,0.0002543,70.0002,89.8838,258.2571,101.8303,-3.6848e-05,-5.32e-06,0.0,0 STARLINK-5599,1 55766U 23028AB  24139.17557270 -.00000532  00000-0 -36848-4 0  9992,2 55766  70.0002  89.8838 0002543 258.2571 101.8303 14.98324226 67581,6950.211,96.107,573.843,570.308,0.0
55766.0,STARLINK-5599,PAYLOAD,2024-05-18 13:49:37,14.98330402,0.0002438,70.0008,88.8742,263.0249,97.0633,2.8525e-05,2.47e-06,0.0,0 STARLINK-5599,1 55766U 23028AB  24139.57612804  .00000247  00000-0  28525-4 0  9995,2 55766  70.0008  88.8742 0002438 263.0249  97.0633 14.98330402 67652,6950.192,96.107,573.751,570.362,0.0
55766.0,STARLINK-5599,PAYLOAD,2024-05-18 21:50:17,14.98338337,0.0002677,70.0001,88.0318,261.4654,98.6201,5.6148e-05,5.77e-06,0.0,0 STARLINK-5599,1 55766U 23028AB  24139.90992258  .00000577  00000-0  56148-4 0  9994,2 55766  70.0001  88.0318 0002677 261.4654  98.6201 14.98338337 67702,6950.167,96.106,573.893,570.172,0.0
55766.0,STARLINK-5599,PAYLOAD,2024-05-19 05:50:57,14.98338177,0.0002657,70.0014,87.1897,264.7773,95.3083,0.00032909,3.837e-05,0.0,0 STARLINK-5599,1 55766U 23028AB  24140.24372372  .00003837  00000-0  32909-3 0  9992,2 55766  70.0014  87.1897 0002657 264.7773  95.3083 14.98338177 67753,6950.168,96.106,573.879,570.186,0.0
55766.0,STARLINK-5599,PAYLOAD,2024-05-19 20:16:10,14.9833151,0.0002474,70.0016,85.6724,260.8716,99.2163,0.00028163,3.269e-05,0.0,0 STARLINK-5599,1 55766U 23028AB  24140.84456690  .00003269  00000-0  28163-3 0  9990,2 55766  70.0016  85.6724 0002474 260.8716  99.2163 14.98331510 67833,6950.188,96.107,573.773,570.334,0.0
55766.0,STARLINK-5599,PAYLOAD,2024-05-20 05:52:59,14.98330108,0.0002497,70.0015,84.6633,260.9444,99.1433,0.00017809,2.033e-05,0.0,0 STARLINK-5599,1 55766U 23028AB  24141.24512786  .00002033  00000-0  17809-3 0  9997,2 55766  70.0015  84.6633 0002497 260.9444  99.1433 14.98330108 67903,6950.193,96.107,573.793,570.322,0.0
55766.0,STARLINK-5599,PAYLOAD,2024-05-20 20:18:11,14.98326544,0.000264,70.0017,83.1497,261.0767,99.0093,-1.0294e-06,-1.05e-06,0.0,0 STARLINK-5599,1 55766U 23028AB  24141.84597018 -.00000105  00000-0 -10294-5 0  9997,2 55766  70.0017  83.1497 0002640 261.0767  99.0093 14.98326544 67985,6950.204,96.107,573.903,570.234,0.0
55766.0,STARLINK-5599,PAYLOAD,2024-05-21 05:55:00,14.98326327,0.0002594,70.0013,82.1414,253.172,106.9155,5.0738e-05,5.12e-06,0.0,0 STARLINK-5599,1 55766U 23028AB  24142.24653212  .00000512  00000-0  50738-4 0  9997,2 55766  70.0013  82.1414 0002594 253.1720 106.9155 14.98326327 68053,6950.204,96.107,573.872,570.266,0.0
55766.0,STARLINK-5599,PAYLOAD,2024-05-21 20:20:11,14.98398014,0.000293,70.001,80.6264,252.7781,107.3057,-0.00098772,-0.00011879,0.0,0 STARLINK-5599,1 55766U 23028AB  24142.84735448 -.00011879  00000-0 -98772-3 0  9994,2 55766  70.0010  80.6264 0002930 252.7781 107.3057 14.98398014 68139,6949.983,96.103,573.884,569.811,0.0
55766.0,STARLINK-5599,PAYLOAD,2024-05-21 21:56:20,14.98333968,0.0002529,70.0009,80.4578,256.7056,103.3821,0.00015645,1.774e-05,0.0,0 STARLINK-5599,1 55766U 23028AB  24142.91412422  .00001774  00000-0  15645-3 0  9995,2 55766  70.0009  80.4578 0002529 256.7056 103.3821 14.98333968 68150,6950.181,96.107,573.803,570.288,0.0
55766.0,STARLINK-5599,PAYLOAD,2024-05-22 05:56:59,14.98355157,0.0002628,70.001,79.6165,254.2678,105.8191,-0.00022531,-2.782e-05,0.0,0 STARLINK-5599,1 55766U 23028AB  24143.24791551 -.00002782  00000-0 -22531-3 0  9999,2 55766  70.0010  79.6165 0002628 254.2678 105.8191 14.98355157 68192,6950.115,96.105,573.807,570.154,0.0
55766.0,STARLINK-5599,PAYLOAD,2024-05-22 20:22:13,14.98328339,0.0002562,70.0012,78.1021,247.3032,112.7857,0.00010063,1.108e-05,0.0,0 STARLINK-5599,1 55766U 23028AB  24143.84876841  .00001108  00000-0  10063-3 0  9997,2 55766  70.0012  78.1021 0002562 247.3032 112.7857 14.98328339 68281,6950.198,96.107,573.844,570.282,0.0
55766.0,STARLINK-5599,PAYLOAD,2024-05-22 21:58:21,14.98328409,0.0002563,70.0012,77.9339,247.4249,112.6639,9.8e-05,1.077e-05,0.0,0 STARLINK-5599,1 55766U 23028AB  24143.91552849  .00001077  00000-0  98000-4 0  9997,2 55766  70.0012  77.9339 0002563 247.4249 112.6639 14.98328409 68300,6950.198,96.107,573.844,570.281,0.0
55766.0,STARLINK-5599,PAYLOAD,2024-05-23 05:59:01,14.9833003,0.0002546,70.0012,77.0925,248.6025,111.4862,0.00010327,1.139e-05,0.0,0 STARLINK-5599,1 55766U 23028AB  24144.24932768  .00001139  00000-0  10327-3 0  9990,2 55766  70.0012  77.0925 0002546 248.6025 111.4862 14.98330030 68351,6950.193,96.107,573.827,570.288,0.0
55766.0,STARLINK-5599,PAYLOAD,2024-05-23 20:24:14,14.98335593,0.000238,70.0015,75.5764,255.8692,104.2203,3.6069e-05,3.38e-06,0.0,0 STARLINK-5599,1 55766U 23028AB  24144.85016464  .00000338  00000-0  36069-4 0  9995,2 55766  70.0015  75.5764 0002380 255.8692 104.2203 14.98335593 68442,6950.176,96.107,573.695,570.386,0.0
55766.0,STARLINK-5599,PAYLOAD,2024-05-24 04:24:54,14.98337609,0.0002483,70.0011,74.7345,256.8577,103.2305,5.7005e-05,5.87e-06,0.0,0 STARLINK-5599,1 55766U 23028AB  24145.18396153  .00000587  00000-0  57005-4 0  9997,2 55766  70.0011  74.7345 0002483 256.8577 103.2305 14.98337609 68487,6950.169,96.107,573.76,570.309,0.0
55766.0,STARLINK-5599,PAYLOAD,2024-05-24 20:26:15,14.98327096,0.0002225,70.0018,73.051,243.7818,116.3112,8.4829e-05,9.19e-06,0.0,0 STARLINK-5599,1 55766U 23028AB  24145.85156614  .00000919  00000-0  84829-4 0  9990,2 55766  70.0018  73.0510 0002225 243.7818 116.3112 14.98327096 68588,6950.202,96.107,573.613,570.52,0.0
55766.0,STARLINK-5599,PAYLOAD,2024-05-24 22:02:23,14.9832613,0.0002293,70.0015,72.8826,244.8281,115.264,6.9365e-05,7.35e-06,0.0,0 STARLINK-5599,1 55766U 23028AB  24145.91832709  .00000735  00000-0  69365-4 0  9997,2 55766  70.0015  72.8826 0002293 244.8281 115.2640 14.98326130 68608,6950.205,96.107,573.664,570.476,0.0
55766.0,STARLINK-5599,PAYLOAD,2024-05-25 12:27:37,14.98313938,0.0002642,70.001,71.3691,272.2034,87.8822,-0.00016643,-2.077e-05,0.0,0 STARLINK-5599,1 55766U 23028AB  24146.51918136 -.00002077  00000-0 -16643-3 0  9996,2 55766  70.0010  71.3691 0002642 272.2034  87.8822 14.98313938 68682,6950.243,96.108,573.944,570.271,0.0
